satname,norad_id,inclination_deg,eccentricity,mean_motion_rev_per_day,perigee_km,apogee_km,l1,l2
STARLINK-1403,45701,53.0575,0.0001827,15.06418947,545.8882381485028,548.4187392930817,1 45701U 20035AW  25279.55066154  .00006711  00000+0  46874-3 0  9990,2 45701  53.0575   8.5753 0001827  96.8918 263.2279 15.06418947295913
STARLINK-1407,45703,53.0438,0.0009029,15.36405354,450.57817050885205,462.92060835088523,1 45703U 20035AY  25279.41659448  .00038375  00000+0  10692-2 0  9990,2 45703  53.0438 333.5428 0009029 311.1115  48.9107 15.36405354296401
STARLINK-1411,45706,53.0571,0.0001807,15.33211088,465.00244171590657,467.4759992819954,1 45706U 20035BB  25279.46335069  .00144959  00000+0  43804-2 0  9995,2 45706  53.0571   0.1260 0001807  44.5154 315.5991 15.33211088296027
STARLINK-1423,45710,53.0555,0.0001355,15.06385279,546.3182852073842,548.1950668935942,1 45710U 20035BF  25279.51013965  .00000006  00000+0  19273-4 0  9993,2 45710  53.0555   8.7614 0001355  89.5885 270.5259 15.06385279295917
STARLINK-1433,45711,53.0566,0.0001542,15.06387348,546.1824400404348,548.3182294944772,1 45711U 20035BG  25279.49171493 -.00001126  00000+0 -56723-4 0  9999,2 45711  53.0566   8.8456 0001542  98.9359 261.1805 15.06387348295904
STARLINK-1434,45712,53.0538,0.0001028,15.13221103,525.6746442600306,527.0942138658456,1 45712U 20035BH  25279.51876490  .00022694  00000+0  12756-2 0  9999,2 45712  53.0538   6.2551 0001028 335.1337  24.9605 15.13221103295955
STARLINK-1465,45731,53.0543,0.0001447,15.06403736,546.1980113805457,548.2022039395033,1 45731U 20038B   25279.52488426  .00004064  00000+0  29152-3 0  9992,2 45731  53.0543 208.6904 0001447  78.6998 281.4154 15.06403736292951
STARLINK-1471,45735,53.0513,0.0003799,15.39618959,444.64226985849837,449.8281876779156,1 45735U 20038F   25279.37702587  .00017910  00000+0  45662-3 0  9994,2 45735  53.0513 155.6410 0003799 105.7747 254.3676 15.39618959293692
STARLINK-1474,45738,53.0371,0.000541,15.62689503,376.2358074765016,383.54799474750416,1 45738U 20038J   25278.97703922  .00061122  00000+0  66963-3 0  9997,2 45738  53.0371 119.4076 0005410 173.1080 187.0009 15.62689503294168
STARLINK-1475,45739,53.0518,0.0004545,15.65198207,369.6005379200451,375.73702037328985,1 45739U 20038K   25278.88862958  .00222497  00000+0  21517-2 0  9992,2 45739  53.0518  87.4946 0004545 155.5973 204.5258 15.65198207294615
STARLINK-1480,45741,53.0527,0.0001534,15.06404906,546.134175633435,548.258867957923,1 45741U 20038M   25279.50644588 -.00003773  00000+0 -23450-3 0  9997,2 45741  53.0527 208.7771 0001534  82.1945 277.9218 15.06404906292968
STARLINK-1500,45744,53.0399,0.0004925,15.26313543,483.4629427097889,490.2249489414271,1 45744U 20038Q   25279.49436076  .00028300  00000+0  10847-2 0  9995,2 45744  53.0399 191.2529 0004925 113.6258 246.5257 15.26313543293200
STARLINK-1504,45746,53.0283,0.0006685,15.36357681,452.32156311429935,461.45999525506886,1 45746U 20038S   25279.10550030  .00028265  00000+0  79301-3 0  9993,2 45746  53.0283 159.7808 0006685  91.2048 268.9720 15.36357681293605
STARLINK-1506,45747,53.0505,0.0004979,15.20525316,500.82824690527013,507.6817328487905,1 45747U 20038T   25279.48365015  .00044639  00000+0  20174-2 0  9998,2 45747  53.0505 192.7160 0004979 137.8395 222.2984 15.20525316293180
STARLINK-1464,45751,53.0544,0.0001455,15.06402633,546.1958511432231,548.2111252252835,1 45751U 20038X   25279.44194548  .00013523  00000+0  92490-3 0  9999,2 45751  53.0544 189.0643 0001455  83.4608 276.6547 15.06402633293236
STARLINK-1477,45754,53.0539,0.0001462,15.06405713,546.1815650721501,548.2065318707237,1 45754U 20038AA  25279.45668720  .00001605  00000+0  12657-3 0  9996,2 45754  53.0539 188.9968 0001462  78.8038 281.3116 15.06405713293231
STARLINK-1478,45755,53.0529,0.0001196,15.06407131,546.3614334629228,548.0179716101702,1 45755U 20038AB  25279.07702737 -.00000629  00000+0 -23352-4 0  9994,2 45755  53.0529 190.7050 0001196 100.1792 259.9332 15.06407131293163
STARLINK-1484,45756,53.0157,0.0004741,15.55674561,396.9788663744257,403.4060783801333,1 45756U 20038AC  25277.89734236  .00111061  00000+0  15715-2 0  9995,2 45756  53.0157 111.5091 0004741 141.0159 219.1193 15.55674561294179
STARLINK-1493,45759,53.0533,0.0001661,15.06395244,546.0758316150095,548.3764372482674,1 45759U 20038AF  25279.46405991  .00003541  00000+0  25654-3 0  9993,2 45759  53.0533 188.9656 0001661  85.3529 274.7650 15.06395244293228
STARLINK-1494,45760,53.0549,8.33e-05,15.45633421,428.95044792155477,430.0846031655101,1 45760U 20038AG  25279.45266580  .00334770  00000+0  65554-2 0  9996,2 45760  53.0549 181.8395 0000833 100.6652 259.4448 15.45633421293339
STARLINK-1502,45764,53.0537,0.0001452,15.06424644,546.1304790135891,548.1415783011107,1 45764U 20038AL  25279.03281085  .00017377  00000+0  11818-2 0  9996,2 45764  53.0537 190.8999 0001452  81.7277 278.3876 15.06424644293179
STARLINK-1470,45772,53.0498,0.0004839,15.15938062,514.7950480791978,521.4692573652028,1 45772U 20038AU  25278.99696831  .00034617  00000+0  17910-2 0  9993,2 45772  53.0498 165.3845 0004839 118.9644 241.1835 15.15938062293520
STARLINK-1482,45773,53.0541,0.0001541,15.06413021,546.1044606730247,548.2388407991821,1 45773U 20038AV  25278.99778503  .00012203  00000+0  83638-3 0  9999,2 45773  53.0541 171.0589 0001541 101.4788 258.6375 15.06413021293448
STARLINK-1485,45774,53.0432,0.0001964,15.8612253,311.85165761499957,314.4800013664235,1 45774U 20038AW  25279.56383521  .00292577  00000+0  11208-2 0  9993,2 45774  53.0432 112.3374 0001964 152.9585 207.1541 15.86122530294314
STARLINK-1496,45780,53.0531,0.0001279,15.06399887,546.3261521421682,548.0976563918803,1 45780U 20038BC  25279.09729984 -.00010940  00000+0 -71665-3 0  9993,2 45780  53.0531 170.6121 0001279  80.7222 279.3912 15.06399887293442
STARLINK-1497,45781,53.0464,0.00111,15.46106517,420.57377519612965,435.6836851170774,1 45781U 20038BD  25279.54726556  .00072640  00000+0  14519-2 0  9993,2 45781  53.0464 121.7200 0011100 131.8096 228.3860 15.46106517294182
STARLINK-1510,45784,53.03,0.0010795,15.60291436,379.51179886485716,394.117329291701,1 45784U 20038BG  25279.23307724  .00182259  00000+0  21417-2 0  9997,2 45784  53.0300 102.1925 0010795  99.7073 260.5159 15.60291436294435
STARLINK-1513,45786,53.0552,0.0002234,15.06418447,545.6079108795611,548.7021313545974,1 45786U 20038BJ  25278.99410837  .00009911  00000+0  68299-3 0  9994,2 45786  53.0552 171.0776 0002234  92.2770 267.8475 15.06418447293440
